     2.100          NAVIGATION                              RINEX VERSION / TYPE
fic2rin                                 08/25/2017 00:22:04 PGM / RUN BY / DATE
                                                            END OF HEADER
20 17  8 24  1 59 44.0  .484270974994D-03  .125055521494D-11  .000000000000D+00
     .900000000000D+01 -.767812500000D+02  .512914222079D-08  .152623595913D+01
    -.401400029659D-05  .446372921579D-02  .107139348984D-04  .515373634148D+04
     .352784000000D+06 -.186264514923D-08 -.307847725036D+01 -.100582838058D-06
     .927755652107D+00  .157093750000D+03  .164535386186D+01 -.829998858498D-08
    -.127148153374D-09  .100000000000D+01  .196300000000D+04  .000000000000D+00
     .240000000000D+01  .000000000000D+00 -.838190317154D-08  .900000000000D+01
     .345696000000D+06  .400000000000D+01
28 17  8 24  1 59 44.0  .639879144728D-03  .306954461848D-11  .000000000000D+00
     .600000000000D+01 -.152187500000D+02  .341692804305D-08 -.290165850851D+01
    -.683590769768D-06  .197455731686D-01  .127460807562D-04  .515366004181D+04
     .352784000000D+06  .173225998878D-06  .245199658304D+00 -.186264514923D-08
     .988330916064D+00  .144687500000D+03 -.156609192896D+01 -.712851121682D-08
    -.296083761649D-09  .100000000000D+01  .196300000000D+04  .000000000000D+00
     .240000000000D+01  .000000000000D+00 -.111758708954D-07  .600000000000D+01
     .346206000000D+06  .400000000000D+01
14 17  8 24  1 59 44.0 -.816904939711D-04 -.113686837722D-11  .000000000000D+00
     .320000000000D+02  .697500000000D+02  .473305429357D-08  .216436099355D+01
     .346265733242D-05  .935336202383D-02  .785663723946D-05  .515368405533D+04
     .352784000000D+06  .521540641785D-07 -.185542294250D+01 -.171363353729D-06
     .961518322366D+00  .227218750000D+03 -.194880672058D+01 -.808033657845D-08
     .509664086698D-09  .100000000000D+01  .196300000000D+04  .000000000000D+00
     .240000000000D+01  .000000000000D+00 -.977888703346D-08  .320000000000D+02
     .346386000000D+06  .400000000000D+01
10 17  8 24  1 59 44.0  .456674024463D-04  .104591890704D-10  .000000000000D+00
     .900000000000D+01 -.593750000000D+02  .432089426830D-08 -.178205889843D+01
    -.324659049511D-05  .269263994414D-02  .122394412756D-04  .515367934418D+04
     .352784000000D+06  .651925802231D-07 -.298199329871D+01 -.931322574615D-08
     .960747327965D+00  .142406250000D+03 -.282086062867D+01 -.790711507737D-08
    -.742888087128D-10  .100000000000D+01  .196300000000D+04  .000000000000D+00
     .240000000000D+01  .000000000000D+00  .186264514923D-08  .900000000000D+01
     .346866000000D+06  .400000000000D+01
10 17  8 24  3 59 44.0  .457433052361D-04  .104591890704D-10  .000000000000D+00
     .100000000000D+02 -.559375000000D+02  .431553690229D-08 -.732247665123D+00
    -.291503965855D-05  .269289209973D-02  .117216259241D-04  .515367772484D+04
     .359984000000D+06  .409781932831D-07 -.298205021061D+01  .428408384323D-07
     .960746811555D+00  .152031250000D+03 -.282049468703D+01 -.792140138673D-08
    -.682171272315D-10  .100000000000D+01  .196300000000D+04  .000000000000D+00
     .240000000000D+01  .000000000000D+00  .186264514923D-08  .100000000000D+02
     .352806000000D+06  .400000000000D+01
14 17  8 24  3 59 44.0 -.816979445517D-04 -.113686837722D-11  .000000000000D+00
     .330000000000D+02  .736562500000D+02  .472269671927D-08 -.306870268422D+01
     .375695526600D-05  .935294618830D-02  .761076807976D-05  .515368516541D+04
     .359984000000D+06  .122934579849D-06 -.185548088576D+01 -.912696123123D-07
     .961522065974D+00  .231656250000D+03 -.194875302710D+01 -.805140680198D-08
     .520378818724D-09  .100000000000D+01  .196300000000D+04  .000000000000D+00
     .240000000000D+01  .000000000000D+00 -.977888703346D-08  .330000000000D+02
     .352806000000D+06  .400000000000D+01
28 17  8 24  3 59 44.0  .639901496470D-03  .306954461848D-11  .000000000000D+00
     .700000000000D+01 -.818750000000D+01  .360372153804D-08 -.185151062703D+01
    -.402331352234D-06  .197461802745D-01  .128559768200D-04  .515365839577D+04
     .359984000000D+06  .307336449623D-06  .245148893584D+00  .348314642906D-06
     .988327453337D+00  .144156250000D+03 -.156605817798D+01 -.737923594623D-08
    -.453233164695D-09  .100000000000D+01  .196300000000D+04  .000000000000D+00
     .240000000000D+01  .000000000000D+00 -.111758708954D-07  .700000000000D+01
     .352806000000D+06  .400000000000D+01
 1 17  8 24  4  0  0.0  .558439642191D-04 -.341060513165D-12  .000000000000D+00
     .430000000000D+02 -.427187500000D+02  .470055293975D-08  .134161525427D+01
    -.227801501751D-05  .700488802977D-02  .336579978466D-05  .515367707062D+04
     .360000000000D+06 -.894069671631D-07  .226247462716D+01  .521540641785D-07
     .968249982333D+00  .318875000000D+03  .610874543982D+00 -.847606734794D-08
    -.234652631367D-09  .100000000000D+01  .196300000000D+04  .000000000000D+00
     .240000000000D+01  .000000000000D+00  .558793544769D-08  .430000000000D+02
     .352806000000D+06  .400000000000D+01
 2 17  8 24  4  0  0.0  .347017776221D-03 -.886757334229D-11  .000000000000D+00
     .670000000000D+02 -.320312500000D+02  .512949937852D-08  .171358662128D+01
    -.189244747162D-05  .170091587352D-01  .272691249847D-05  .515356534576D+04
     .360000000000D+06 -.245869159698D-06  .220720214573D+01 -.346451997757D-06
     .947177652425D+00  .319687500000D+03 -.196108907941D+01 -.867536136362D-08
    -.467876631797D-10  .100000000000D+01  .196300000000D+04  .000000000000D+00
     .340000000000D+01  .000000000000D+00 -.204890966415D-07  .670000000000D+02
     .352806000000D+06  .400000000000D+01
 3 17  8 24  4  0  0.0 -.754366628826D-04  .386535248253D-11  .000000000000D+00
     .330000000000D+02 -.635625000000D+02  .433732352408D-08  .491869101625D+00
    -.334717333317D-05  .923564541154D-03  .121816992760D-04  .515368072510D+04
     .360000000000D+06  .298023223877D-07 -.297840055916D+01  .260770320892D-07
     .960598923704D+00  .148187500000D+03  .331851590631D+00 -.791854412486D-08
    -.137862885400D-09  .100000000000D+01  .196300000000D+04  .000000000000D+00
     .240000000000D+01  .000000000000D+00  .232830643654D-08  .330000000000D+02
     .352806000000D+06  .400000000000D+01
 5 17  8 24  4  0  0.0 -.320603139699D-04  .147792889038D-11  .000000000000D+00
     .940000000000D+02 -.750625000000D+02  .460769192886D-08 -.203104719126D+01
    -.420771539211D-05  .518789049238D-02  .111144036055D-04  .515381995583D+04
     .360000000000D+06 -.931322574615D-08 -.299642827567D+01 -.968575477600D-07
     .947539351606D+00  .155437500000D+03  .579260063592D+00 -.800747640068D-08
    -.446447167745D-10  .100000000000D+01  .196300000000D+04  .000000000000D+00
     .240000000000D+01  .000000000000D+00 -.107102096081D-07  .940000000000D+02
     .352806000000D+06  .400000000000D+01
 6 17  8 24  4  0  0.0  .391175039113D-03  .352429196937D-11  .000000000000D+00
     .460000000000D+02 -.384687500000D+02  .462376402690D-08  .143174428832D+01
    -.188872218132D-05  .590650248341D-03  .313855707645D-05  .515372800255D+04
     .360000000000D+06  .223517417908D-07  .225410656020D+01 -.186264514923D-08
     .968002895469D+00  .321093750000D+03 -.105048489684D+01 -.839999275056D-08
    -.735744932444D-10  .100000000000D+01  .196300000000D+04  .000000000000D+00
     .240000000000D+01  .000000000000D+00  .465661287308D-08  .460000000000D+02
     .352806000000D+06  .400000000000D+01
 7 17  8 24  4  0  0.0  .311769079417D-03 -.477484718431D-11  .000000000000D+00
     .660000000000D+02 -.233437500000D+02  .515950062820D-08  .716044372774D+00
    -.103190541267D-05  .110142446356D-01  .418163836002D-05  .515371680260D+04
     .360000000000D+06 -.335276126862D-07 -.864080909467D+00  .121071934700D-06
     .961145177315D+00  .297531250000D+03 -.256798719993D+01 -.862750222724D-08
    -.423589072757D-09  .100000000000D+01  .196300000000D+04  .000000000000D+00
     .240000000000D+01  .000000000000D+00 -.111758708954D-07  .660000000000D+02
     .352806000000D+06  .400000000000D+01
 8 17  8 24  4  0  0.0 -.709807500243D-04 -.136424205266D-11  .000000000000D+00
     .370000000000D+02  .100156250000D+03  .432339437244D-08 -.223737149713D+01
     .518560409546D-05  .256316480227D-02  .771880149841D-05  .515368045425D+04
     .360000000000D+06  .242143869400D-07  .119849363078D+01  .596046447754D-07
     .967240707835D+00  .235687500000D+03 -.626605359143D+00 -.814319633967D-08
     .448232956416D-09  .100000000000D+01  .196300000000D+04  .000000000000D+00
     .240000000000D+01  .000000000000D+00  .558793544769D-08  .370000000000D+02
     .352806000000D+06  .400000000000D+01
 9 17  8 24  4  0  0.0  .430624000728D-03  .670752342558D-11  .000000000000D+00
     .690000000000D+02  .693437500000D+02  .496020661252D-08 -.256918985026D+01
     .364147126675D-05  .679938588291D-03  .891275703907D-05  .515356854057D+04
     .360000000000D+06  .316649675369D-07 -.194302214061D+01  .316649675369D-07
     .953080354251D+00  .204062500000D+03  .185965370597D+01 -.825320092180D-08
     .619668668830D-09  .100000000000D+01  .196300000000D+04  .000000000000D+00
     .240000000000D+01  .000000000000D+00  .931322574615D-09  .690000000000D+02
     .352806000000D+06  .400000000000D+01
11 17  8 24  4  0  0.0 -.711137894541D-03 -.250111042988D-11  .000000000000D+00
     .320000000000D+02  .250937500000D+02  .640919554015D-08  .743185651980D+00
     .108033418655D-05  .170764081413D-01  .242330133915D-05  .515371786690D+04
     .360000000000D+06 -.167638063431D-06  .185388250585D+01 -.219792127609D-06
     .901672830704D+00  .304718750000D+03  .168165419905D+01 -.956504127951D-08
     .942896418278D-10  .100000000000D+01  .196300000000D+04  .000000000000D+00
     .240000000000D+01  .000000000000D+00 -.121071934700D-07  .320000000000D+02
     .352806000000D+06  .400000000000D+01
